{"type":"FeatureCollection","features":[{"type":"Feature","properties":{"Facility Name":"Aquatic Park","Address":"80 Bolivar Dr, Berkeley CA","Facility":"Small Turf Area","Hours":"6am-10pm","Additional amenities":"Disc golf field","Website Link":"https://berkeleyca.gov/community-recreation/parks-recreation/parks/aquatic-park","Total Park Acres":"32.76 land acres, 67.7 water acres "},"geometry":{"coordinates":[[[-122.3024964006088,37.86583310490602],[-122.30283494894906,37.86562523022134],[-122.30283494894906,37.86512038926013],[-122.30272209950229,37.864407666721135],[-122.30253401709095,37.86351675385413],[-122.30155598855204,37.86013118673466],[-122.29873475238145,37.850062660422466],[-122.29568781731737,37.85050819951336],[-122.29914853368662,37.861111235315505],[-122.29978801388529,37.86105183880298],[-122.30208261930363,37.86559553378979],[-122.3024964006088,37.86583310490602]]],"type":"Polygon"}},{"type":"Feature","properties":{"Facility Name":"Cedar-Rose Park","Address":"1300 Rose St, Berkeley, CA 94702","Facility":"Sports Field","Hours":"6am-10pm","Additional amenities":"Open grass area and multi-use field","Website Link":"https://berkeleyca.gov/community-recreation/parks-recreation/parks/cedar-rose-park","Total Park Acres":4.94},"geometry":{"coordinates":[[[-122.28896978390013,37.87679379935324],[-122.2887098208322,37.876007850471865],[-122.28870491586844,37.8759730052535],[-122.28792012170089,37.87611625771265],[-122.28702741833496,37.8762440231843],[-122.28760620403361,37.87712676039017],[-122.28835175849306,37.87687123228696],[-122.28896978390013,37.87679379935324]]],"type":"Polygon"}},{"type":"Feature","properties":{"Facility Name":"Cordonices Park","Address":"1201 Euclid Avenue, Berkeley, California 94708, United States","Facility":"Sports Field","Hours":"6am-10pm","Additional amenities":"60’-70’ baseball softball diamond and multi-use field","Website Link":"https://berkeleyca.gov/community-recreation/parks-recreation/parks/codornices-park","Total Park Acres":10.5},"geometry":{"coordinates":[[[-122.2622526103247,37.886641608327],[-122.26272945580324,37.884928917227306],[-122.26271380090236,37.884525317568915],[-122.2625159376642,37.88418334989194],[-122.26204212189977,37.88442389529379],[-122.26158610859211,37.884658730466775],[-122.26130604241372,37.884632340049095],[-122.2611821548099,37.884482685849136],[-122.26058248534459,37.88456202042079],[-122.26013800952575,37.88437144125626],[-122.25974362337529,37.884853131319],[-122.26144069339153,37.8867512343344],[-122.2622526103247,37.886641608327]]],"type":"Polygon"}},{"type":"Feature","properties":{"Facility Name":"Glendale-La Loma Park","Address":"1300 Glendale Ave, Berkeley, CA 94708","Facility":"Sports Field","Hours":"6am-10pm","Additional amenities":"60’-70’ baseball softball diamond","Website Link":"https://berkeleyca.gov/community-recreation/parks-recreation/parks/glendale-la-loma-park","Total Park Acres":5.61},"geometry":{"coordinates":[[[-122.25684975470847,37.885724509702285],[-122.25691939325162,37.88548023675202],[-122.25739138782181,37.885181001283144],[-122.25725211073548,37.88492451277105],[-122.25773184292177,37.88462527504399],[-122.25739138782181,37.88452756450239],[-122.2573140116628,37.88447260226623],[-122.25671047762214,37.884368784596276],[-122.25663310146314,37.88413061409483],[-122.2561688445088,37.8842955014468],[-122.25614563166098,37.88442374690993],[-122.25616110689296,37.88468634406695],[-122.25602956742247,37.884771840612885],[-122.25596766649517,37.88490008524647],[-122.25589029033617,37.88490008524647],[-122.25585160225664,37.88504665026923],[-122.25571232517032,37.88503443652863],[-122.25572006278644,37.88495504716441],[-122.2555188847728,37.88494894028675],[-122.25543377099794,37.88517489442425],[-122.2553099691433,37.88523596299058],[-122.25496951404361,37.88537031365989],[-122.25513974159333,37.885620693797335],[-122.2553099691433,37.88597488863542],[-122.25570458755448,37.8857794710041],[-122.25599087934297,37.88557794602872],[-122.25634680967462,37.885669548358706],[-122.25645513629729,37.885712296074175],[-122.25684975470847,37.885724509702285]]],"type":"Polygon"}},{"type":"Feature","properties":{"Facility Name":"Grove Park","Address":"1730 Oregon Street, Berkeley, California 94703, United States","Facility":"Sports Field","Hours":"6am-10pm","Additional amenities":"60’-70’ baseball softball diamond","Website Link":"https://berkeleyca.gov/community-recreation/parks-recreation/parks/grove-park","Total Park Acres":3.09},"geometry":{"coordinates":[[[-122.27287146979316,37.85679556574097],[-122.27272589470363,37.85601323903229],[-122.27143450277923,37.8561986252591],[-122.27152372622126,37.856966119276834],[-122.27287146979316,37.85679556574097]]],"type":"Polygon"}},{"type":"Feature","properties":{"Facility Name":"Harrison Park","Address":"1100 Fourth St, Berkeley, CA 94710","Facility":"Gabe Catalfo West and East Fields","Hours":"8am-8pm","Additional amenities":"Natural turf soccer and lights","Website Link":"https://berkeleyca.gov/community-recreation/parks-recreation/parks/harrison-park","Total Park Acres":"5.60"},"geometry":{"coordinates":[[[-122.3057069654581,37.8827025538006],[-122.3050626593833,37.88061754663991],[-122.30320491020109,37.880990479084815],[-122.30354854010767,37.88220249648852],[-122.30335524828519,37.88226182549985],[-122.30368813975693,37.883117853055694],[-122.3057069654581,37.8827025538006]]],"type":"Polygon"}},{"type":"Feature","properties":{"Facility Name":"James Kenney Park","Address":"1720 Eighth Street, Berkeley, California 94710, United States","Facility":"Sports Field","Hours":"6am-10pm","Additional amenities":"60’-70’ baseball softball diamond and lights","Website Link":"https://berkeleyca.gov/community-recreation/parks-recreation/parks/james-kenney-park","Total Park Acres":4.24},"geometry":{"coordinates":[[[-122.2979428291296,37.87250016217918],[-122.29742792954694,37.870833694931804],[-122.29644962033913,37.871052166870015],[-122.29698382865644,37.87268814544788],[-122.2979428291296,37.87250016217918]]],"type":"Polygon"}},{"type":"Feature","properties":{"Facility Name":"Ohlone Middlefield Park (Soccer Field)","Address":"Ohlone Park in California St, Berkeley, CA 94703","Facility":"Sports Field","Hours":"6am-10pm","Additional amenities":"Open grass area and multi-use field","Website Link":"https://berkeleyca.gov/community-recreation/parks-recreation/parks/ohlone-park","Total Park Acres":"9.80 (Ohlone Park Total)"},"geometry":{"coordinates":[[[-122.27995061622951,37.87288138401725],[-122.27989467781012,37.872547757313896],[-122.27909289379889,37.87264097669184],[-122.27898723233997,37.87272438340379],[-122.27904317075937,37.87298932174471],[-122.27995061622951,37.87288138401725]]],"type":"Polygon"}},{"type":"Feature","properties":{"Facility Name":"Ohlone Softball Field","Address":"Ohlone Park in California St, Berkeley, CA 94703","Facility":"Sports Field","Hours":"6am-10pm","Additional amenities":"60’-70’ baseball softball diamond","Website Link":"https://berkeleyca.gov/community-recreation/parks-recreation/parks/ohlone-park","Total Park Acres":"9.80 (Ohlone Park Total)"},"geometry":{"coordinates":[[[-122.28213785339582,37.873532679246054],[-122.28210903438566,37.87322719475981],[-122.28205963036841,37.87322069507617],[-122.28208433237717,37.873149198517396],[-122.28197729033957,37.87311670005903],[-122.28164381322257,37.87306145264644],[-122.2814050271389,37.87310695051829],[-122.28147501616351,37.87359442595647],[-122.28213785339582,37.873532679246054]]],"type":"Polygon"}},{"type":"Feature","properties":{"Facility Name":"San Pablo Park","Address":"2800 Park St, Berkeley, CA 94702","Facility":"Fields 1 and 2","Hours":"6am-10pm","Additional amenities":"60’-70’ baseball softball diamond, 90' baseball diamond, multi-use field, and lights ","Website Link":"https://berkeleyca.gov/community-recreation/parks-recreation/parks/san-pablo-park","Total Park Acres":12.95},"geometry":{"coordinates":[[[-122.28508739291905,37.857194504000574],[-122.28512777747196,37.85712541908053],[-122.28452200918034,37.85429819605166],[-122.2842998941399,37.85417596403957],[-122.28390951012994,37.85417064959974],[-122.28310181907457,37.854346025914694],[-122.28292681934583,37.854510772982124],[-122.28292008858708,37.854654262062965],[-122.28316239590373,37.85589250808499],[-122.28347201080831,37.857337987857605],[-122.28354604915496,37.857412386785],[-122.28508739291905,37.857194504000574]]],"type":"Polygon"}},{"type":"Feature","properties":{"Facility Name":"Tom Bates Regions Sports Complex (Gilman)","Facility":"Gilman North","Address":"400 Gilman Street, Berkeley, California 94710, United States","Hours":"8am-11pm","Additional amenities":"Synthetic turf soccer, lacrosse, rugby, multi-use field, and lights","Website Link":"https://berkeleyca.gov/your-government/our-work/capital-projects/tom-bates-regional-sports-complex-restroom-community","Total Park Acres":"20 (Tom Bates Regional Sports Complex Total)"},"geometry":{"coordinates":[[[-122.30890882394243,37.877574939052565],[-122.30847486112864,37.876515700215876],[-122.30767369901082,37.876668526660225],[-122.30814771993022,37.87776465186272],[-122.30890882394243,37.877574939052565]]],"type":"Polygon"}},{"type":"Feature","properties":{"Facility Name":"Tom Bates Regions Sports Complex (Gilman)","Facility":"Gilman South","Address":"400 Gilman Street, Berkeley, California 94710, United States","Hours":"8am-11pm","Additional amenities":"Synthetic turf soccer, lacrosse, rugby, multi-use field, and lights","Website Link":"https://berkeleyca.gov/your-government/our-work/capital-projects/tom-bates-regional-sports-complex-restroom-community","Total Park Acres":"20 (Tom Bates Regional Sports Complex Total)"},"geometry":{"coordinates":[[[-122.30847486112864,37.87649989056578],[-122.30817442533439,37.87560400484155],[-122.30737993956751,37.87576210311363],[-122.3076603463085,37.87665271704222],[-122.30847486112864,37.87649989056578]]],"type":"Polygon"}},{"type":"Feature","properties":{"Facility Name":"Tom Bates Regions Sports Complex (Gilman)","Facility":"Gilman Softball","Address":"400 Gilman Street, Berkeley, California 94710, United States","Hours":"8am-Sunset","Additional amenities":"60’-70’ baseball softball diamond","Website Link":"https://berkeleyca.gov/your-government/our-work/capital-projects/tom-bates-regional-sports-complex-restroom-community","Total Park Acres":"20 (Tom Bates Regional Sports Complex Total)"},"geometry":{"coordinates":[[[-122.30912246717364,37.87597817020452],[-122.30896891110127,37.87540374654267],[-122.30854162463844,37.875514415669784],[-122.30828792330115,37.875841152122746],[-122.30838139221467,37.87606248889648],[-122.30869518071077,37.87606775881153],[-122.30912246717364,37.87597817020452]]],"type":"Polygon"}},{"type":"Feature","properties":{"Facility Name":"Tom Bates Regions Sports Complex (Gilman)","Facility":"Gilman West","Address":"400 Gilman Street, Berkeley, California 94710, United States","Hours":"8am-Sunset","Additional amenities":"Natural turf soccer, multi-use field, and lights","Website Link":"https://berkeleyca.gov/your-government/our-work/capital-projects/tom-bates-regional-sports-complex-restroom-community","Total Park Acres":"20 (Tom Bates Regional Sports Complex Total)"},"geometry":{"coordinates":[[[-122.30884993457988,37.87534915594014],[-122.30858221354399,37.874478988440046],[-122.30787354021354,37.87459708320364],[-122.30817275784194,37.87549832647936],[-122.30884993457988,37.87534915594014]]],"type":"Polygon"}},{"type":"Feature","properties":{"Facility Name":"Tom Bates Regions Sports Complex (Gilman)","Facility":"Gilman East","Address":"400 Gilman Street, Berkeley, California 94710, United States","Hours":"8am-Sunset","Additional amenities":"Natural turf soccer, multi-use field, and lights","Website Link":"https://berkeleyca.gov/your-government/our-work/capital-projects/tom-bates-regional-sports-complex-restroom-community","Total Park Acres":"20 (Tom Bates Regional Sports Complex Total)"},"geometry":{"coordinates":[[[-122.30808614221249,37.87547968017856],[-122.3077869245841,37.87459086769452],[-122.30707825125366,37.874696531278076],[-122.30739321717817,37.87564749671729],[-122.30808614221249,37.87547968017856]]],"type":"Polygon"}},{"type":"Feature","properties":{"Facility Name":"Willard Park","Address":"2730 Hillegass Ave, Berkeley, CA 94705","Facility":"Sports Field (Baseball Youth Only)","Hours":"6am-10pm","Additional amenities":"60’-70’ baseball softball diamond, 90' baseball diamond, multi-use field, and lights ","Website Link":"https://berkeleyca.gov/community-recreation/parks-recreation/parks/willard-park","Total Park Acres":2.72},"geometry":{"coordinates":[[[-122.25700216445,37.86151767452161],[-122.25692355201025,37.86062394397146],[-122.2559906843889,37.860644632300975],[-122.25607977848759,37.861567325900694],[-122.25700216445,37.86151767452161]]],"type":"Polygon"}}]}